H1 CPF 01  gfz 2021 06 16 00  6671 tandemx   
H2 1003001  6202 36605    2021 06 16 00 59 42 2021 06 21 00 00 42   120 1 1  0 0 0
H9
10 0 59382  16542.000000  0   -6413476.409  -2516167.757      1544.648
10 0 59382  16662.000000  0   -6419565.249  -2327744.996    904187.359
10 0 59382  16782.000000  0   -6309773.664  -2099532.861   1790907.614
10 0 59382  16902.000000  0   -6085353.059  -1837530.159   2646085.529
10 0 59382  17022.000000  0   -5749689.879  -1548293.920   3454658.164
10 0 59382  17142.000000  0   -5308251.623  -1238784.894   4202392.651
10 0 59382  17262.000000  0   -4768488.437   -916206.493   4876141.221
10 0 59382  17382.000000  0   -4139698.203   -587842.627   5464071.363
10 0 59382  17502.000000  0   -3432858.541   -260897.798   5955872.072
10 0 59382  17622.000000  0   -2660426.354     57658.081   6342931.292
10 0 59382  17742.000000  0   -1836110.692    361235.204   6618480.772
10 0 59382  17862.000000  0    -974624.549    643756.708   6777708.136
10 0 59382  17982.000000  0     -91420.260    899778.456   6817835.355
10 0 59382  18102.000000  0     797587.425   1124592.656   6738163.654
10 0 59382  18222.000000  0    1676307.083   1314314.339   6540085.037
10 0 59382  18342.000000  0    2528761.026   1465948.858   6227059.260
10 0 59382  18462.000000  0    3339375.689   1577439.134   5804557.747
10 0 59382  18582.000000  0    4093268.949   1647692.267   5279973.251
10 0 59382  18702.000000  0    4776526.351   1676585.127   4662496.108
10 0 59382  18822.000000  0    5376464.692   1664949.686   3962960.914
10 0 59382  18942.000000  0    5881878.368   1614536.926   3193659.146
10 0 59382  19062.000000  0    6283256.565   1527960.296   2368122.736
10 0 59382  19182.000000  0    6572972.022   1408619.321   1500885.428
10 0 59382  19302.000000  0    6745433.920   1260606.200    607221.039
10 0 59382  19422.000000  0    6797200.508   1088597.133   -297132.435
10 0 59382  19542.000000  0    6727049.769    897730.990  -1196259.431
10 0 59382  19662.000000  0    6536003.068    693477.879  -2074355.765
10 0 59382  19782.000000  0    6227305.037    481501.350  -2916013.103
10 0 59382  19902.000000  0    5806359.342    267518.914  -3706494.427
10 0 59382  20022.000000  0    5280622.419     57163.660  -4431994.332
10 0 59382  20142.000000  0    4659457.308   -144149.584  -5079877.817
10 0 59382  20262.000000  0    3953954.699   -331349.925  -5638893.027
10 0 59382  20382.000000  0    3176725.998   -499825.609  -6099357.985
10 0 59382  20502.000000  0    2341670.615   -645526.987  -6453318.397
10 0 59382  20622.000000  0    1463723.826   -765054.238  -6694672.556
10 0 59382  20742.000000  0     558591.438   -855729.900  -6819266.444
10 0 59382  20862.000000  0    -357527.860   -915653.841  -6824957.839
10 0 59382  20982.000000  0   -1268225.741   -943740.348  -6711648.243
10 0 59382  21102.000000  0   -2157171.234   -939737.292  -6481285.044
10 0 59382  21222.000000  0   -3008397.195   -904226.575  -6137830.564
10 0 59382  21342.000000  0   -3806580.340   -838606.454  -5687201.256
10 0 59382  21462.000000  0   -4537315.891   -745055.812  -5137177.627
10 0 59382  21582.000000  0   -5187380.027   -626480.312  -4497280.881
10 0 59382  21702.000000  0   -5744974.822   -486442.153  -3778619.764
10 0 59382  21822.000000  0   -6199952.752   -329073.819  -2993707.575
10 0 59382  21942.000000  0   -6544013.315   -158976.931  -2156250.362
10 0 59382  22062.000000  0   -6770867.980     18890.468  -1280911.044
10 0 59382  22182.000000  0   -6876369.083    199337.501   -383050.799
10 0 59382  22302.000000  0   -6858594.615    377070.364    521547.165
10 0 59382  22422.000000  0   -6717889.165    546825.942   1416961.314
10 0 59382  22542.000000  0   -6456861.096    703505.273   2287420.569
10 0 59382  22662.000000  0   -6080333.338    842303.656   3117591.639
10 0 59382  22782.000000  0   -5595248.640    958834.076   3892857.452
10 0 59382  22902.000000  0   -5010532.609   1049240.524   4599579.565
10 0 59382  23022.000000  0   -4336919.430   1110298.498   5225339.934
10 0 59382  23142.000000  0   -3586745.041   1139500.197   5759157.531
10 0 59382  23262.000000  0   -2773712.881   1135123.031   6191678.079
10 0 59382  23382.000000  0   -1912636.111   1096279.779   6515333.966
10 0 59382  23502.000000  0   -1019161.145   1022950.114   6724470.505
10 0 59382  23622.000000  0    -109480.635    915991.944   6815437.544
10 0 59382  23742.000000  0     799959.685    777132.966   6786648.607
10 0 59382  23862.000000  0    1692757.102    608942.763   6638606.698
10 0 59382  23982.000000  0    2552846.524    414785.843   6373896.248
10 0 59382  24102.000000  0    3364789.471    198756.042   5997141.886
10 0 59382  24222.000000  0    4114053.689    -34407.025   5514932.594
10 0 59382  24342.000000  0    4787277.124   -279417.866   4935712.162
10 0 59382  24462.000000  0    5372512.522   -530559.381   4269637.145
10 0 59382  24582.000000  0    5859447.969   -781809.855   3528403.667
10 0 59382  24702.000000  0    6239599.235  -1026979.689   2725044.490
10 0 59382  24822.000000  0    6506467.564  -1259854.862   1873698.503
10 0 59382  24942.000000  0    6655658.428  -1474342.862    989357.862
10 0 59382  25062.000000  0    6684959.978  -1664619.455     87598.617
10 0 59382  25182.000000  0    6594378.050  -1825271.836   -815702.922
10 0 59382  25302.000000  0    6386124.453  -1951432.669  -1704658.784
10 0 59382  25422.000000  0    6064561.774  -2038903.478  -2563657.306
10 0 59382  25542.000000  0    5636104.459  -2084263.283  -3377643.397
10 0 59382  25662.000000  0    5109080.996  -2084960.207  -4132384.743
10 0 59382  25782.000000  0    4493561.804  -2039384.085  -4814719.892
10 0 59382  25902.000000  0    3801156.052  -1946919.058  -5412784.010
10 0 59382  26022.000000  0    3044782.554  -1807974.959  -5916206.999
10 0 59382  26142.000000  0    2238422.949  -1623996.833  -6316282.085
10 0 59382  26262.000000  0    1396861.304  -1397453.006  -6606106.417
10 0 59382  26382.000000  0     535412.595  -1131802.191  -6780689.219
10 0 59382  26502.000000  0    -330352.266   -831441.061  -6837028.253
10 0 59382  26622.000000  0   -1184881.786   -501632.400  -6774155.303
10 0 59382  26742.000000  0   -2012916.753   -148414.991  -6593151.283
10 0 59382  26862.000000  0   -2799756.526    221504.184  -6297128.637
10 0 59382  26982.000000  0   -3531513.943    600872.920  -5891183.508
10 0 59382  27102.000000  0   -4195358.326    982031.356  -5382318.289
10 0 59382  27222.000000  0   -4779742.220   1357061.299  -4779331.896
10 0 59382  27342.000000  0   -5274608.188   1717946.739  -4092680.331
10 0 59382  27462.000000  0   -5671570.479   2056741.825  -3334304.792
10 0 59382  27582.000000  0   -5964067.439   2365741.493  -2517432.042
10 0 59382  27702.000000  0   -6147481.879   2637652.304  -1656348.400
10 0 59382  27822.000000  0   -6219225.009   2865759.442   -766150.443
10 0 59382  27942.000000  0   -6178781.262   3044085.391    137523.150
10 0 59382  28062.000000  0   -6027711.252   3167535.451   1038773.772
10 0 59382  28182.000000  0   -5769611.596   3232026.662   1921731.332
10 0 59382  28302.000000  0   -5410033.684   3234596.422   2770842.781
10 0 59382  28422.000000  0   -4956363.632   3173488.200   3571154.009
10 0 59382  28542.000000  0   -4417666.151   3048211.524   4308580.203
10 0 59382  28662.000000  0   -3804496.237   2859574.965   4970156.862
10 0 59382  28782.000000  0   -3128685.561   2609692.647   5544267.638
10 0 59382  28902.000000  0   -2403107.022   2301964.395   6020846.999
10 0 59382  29022.000000  0   -1641422.686   1941028.809   6391552.276
10 0 59382  29142.000000  0    -857821.244   1532691.242   6649903.303
10 0 59382  29262.000000  0     -66752.095   1083828.284   6791388.274
10 0 59382  29382.000000  0     717340.607    602270.592   6813537.670
10 0 59382  29502.000000  0    1480280.863     96666.269   6715964.379
10 0 59382  29622.000000  0    2208415.883   -423673.622   6500370.340
10 0 59382  29742.000000  0    2888859.909   -948946.035   6170519.624
10 0 59382  29862.000000  0    3509723.836  -1469039.511   5732177.520
10 0 59382  29982.000000  0    4060326.804  -1973728.610   5193015.249
10 0 59382  30102.000000  0    4531384.185  -2452874.911   4562480.985
10 0 59382  30222.000000  0    4915170.613  -2896631.650   3851640.632
10 0 59382  30342.000000  0    5205654.895  -3295648.294   3072987.093
10 0 59382  30462.000000  0    5398601.713  -3641268.768   2240219.948
10 0 59382  30582.000000  0    5491636.639  -3925719.337   1368001.796
10 0 59382  30702.000000  0    5484274.722  -4142282.347    471695.043
10 0 59382  30822.000000  0    5377910.879  -4285449.505   -432916.007
10 0 59382  30942.000000  0    5175772.315  -4351052.449  -1329912.072
10 0 59382  31062.000000  0    4882833.489  -4336365.403  -2203528.032
10 0 59382  31182.000000  0    4505696.167  -4240178.219  -3038437.371
10 0 59382  31302.000000  0    4052438.545  -4062838.559  -3820025.597
10 0 59382  31422.000000  0    3532437.230  -3806261.842  -4534647.231
10 0 59382  31542.000000  0    2956167.537  -3473910.195  -5169861.158
10 0 59382  31662.000000  0    2334987.027  -3070741.087  -5714640.306
10 0 59382  31782.000000  0    1680908.884  -2603128.526  -6159552.378
10 0 59382  31902.000000  0    1006369.302  -2078758.988  -6496913.429
10 0 59382  32022.000000  0     323991.387  -1506501.366  -6720910.672
10 0 59382  32142.000000  0    -353648.103   -896255.597  -6827691.739
10 0 59382  32262.000000  0   -1014245.091   -258783.237  -6815422.621
10 0 59382  32382.000000  0   -1645986.096    394478.086  -6684315.433
10 0 59382  32502.000000  0   -2237754.647   1051614.549  -6436624.525
10 0 59382  32622.000000  0   -2779322.317   1700447.828  -6076611.988
10 0 59382  32742.000000  0   -3261523.117   2328755.303  -5610482.657
10 0 59382  32862.000000  0   -3676409.722   2924497.199  -5046289.015
10 0 59382  32982.000000  0   -4017389.004   3476046.715  -4393803.627
99
